{
  "type": "FeatureCollection",
  "features": [
    {
      "type": "Feature",
      "properties": {
        "norad_id": 19071,
        "name": "OSCAR 32",
        "group": "nnss",
        "lat": 61.284044376125685,
        "lon": 15.73883445960708,
        "alt_km": 1223.9570888419948,
        "timestamp": "2025-12-06T09:34:17.182390+00:00",
        "meta_object_name": "OSCAR 32",
        "meta_object_id": "1988-033B",
        "meta_epoch": "2025-12-05T21:28:09.882912",
        "meta_mean_motion": 13.27952736,
        "meta_eccentricity": 0.0187778,
        "meta_inclination": 90.3224,
        "meta_ra_of_asc_node": 16.3119,
        "meta_arg_of_pericenter": 185.8244,
        "meta_mean_anomaly": 348.0929,
        "meta_ephemeris_type": 0,
        "meta_classification_type": "U",
        "meta_norad_cat_id": 19071,
        "meta_element_set_no": 999,
        "meta_rev_at_epoch": 82174,
        "meta_bstar": 0.00025968054,
        "meta_mean_motion_dot": 1.38e-06,
        "meta_mean_motion_ddot": 0,
        "tle_line1": "1 19071U 88033B   25339.89455883  .00000138  00000+0  25968-3 0  9996",
        "tle_line2": "2 19071  90.3224  16.3119 0187778 185.8244 348.0929 13.27952736821743"
      },
      "geometry": {
        "type": "Point",
        "coordinates": [
          15.73883445960708,
          61.284044376125685
        ]
      }
    },
    {
      "type": "Feature",
      "properties": {
        "norad_id": 19223,
        "name": "NOVA 2",
        "group": "nnss",
        "lat": 14.540475523776545,
        "lon": 78.2834832122522,
        "alt_km": 1152.1714345548116,
        "timestamp": "2025-12-06T09:34:17.182400+00:00",
        "meta_object_name": "NOVA 2",
        "meta_object_id": "1988-052A",
        "meta_epoch": "2025-12-05T19:33:49.296096",
        "meta_mean_motion": 13.2293481,
        "meta_eccentricity": 0.00311447,
        "meta_inclination": 89.9873,
        "meta_ra_of_asc_node": 78.2809,
        "meta_arg_of_pericenter": 35.5433,
        "meta_mean_anomaly": 81.131,
        "meta_ephemeris_type": 0,
        "meta_classification_type": "U",
        "meta_norad_cat_id": 19223,
        "meta_element_set_no": 999,
        "meta_rev_at_epoch": 80856,
        "meta_bstar": 0.00025319783,
        "meta_mean_motion_dot": 1.15e-06,
        "meta_mean_motion_ddot": 0,
        "tle_line1": "1 19223U 88052A   25339.81515389  .00000115  00000+0  25320-3 0  9993",
        "tle_line2": "2 19223  89.9873  78.2809 0031144  35.5433  81.1310 13.22934810808567"
      },
      "geometry": {
        "type": "Point",
        "coordinates": [
          78.2834832122522,
          14.540475523776545
        ]
      }
    },
    {
      "type": "Feature",
      "properties": {
        "norad_id": 19419,
        "name": "OSCAR 25",
        "group": "nnss",
        "lat": 3.123568951705325,
        "lon": 20.22128067786128,
        "alt_km": 1112.3738644963387,
        "timestamp": "2025-12-06T09:34:17.182414+00:00",
        "meta_object_name": "OSCAR 25",
        "meta_object_id": "1988-074A",
        "meta_epoch": "2025-12-05T21:54:28.663200",
        "meta_mean_motion": 13.42621411,
        "meta_eccentricity": 0.00942515,
        "meta_inclination": 90.0352,
        "meta_ra_of_asc_node": 20.2215,
        "meta_arg_of_pericenter": 265.6733,
        "meta_mean_anomaly": 268.9378,
        "meta_ephemeris_type": 0,
        "meta_classification_type": "U",
        "meta_norad_cat_id": 19419,
        "meta_element_set_no": 999,
        "meta_rev_at_epoch": 82548,
        "meta_bstar": 0.00028827776,
        "meta_mean_motion_dot": 1.76e-06,
        "meta_mean_motion_ddot": 0,
        "tle_line1": "1 19419U 88074A   25339.91283175  .00000176  00000+0  28828-3 0  9993",
        "tle_line2": "2 19419  90.0352  20.2215 0094251 265.6733 268.9378 13.42621411825485"
      },
      "geometry": {
        "type": "Point",
        "coordinates": [
          20.22128067786128,
          3.123568951705325
        ]
      }
    },
    {
      "type": "Feature",
      "properties": {
        "norad_id": 19420,
        "name": "OSCAR 31",
        "group": "nnss",
        "lat": -66.65466956942595,
        "lon": -159.51339035830483,
        "alt_km": 1039.2610811980112,
        "timestamp": "2025-12-06T09:34:17.182436+00:00",
        "meta_object_name": "OSCAR 31",
        "meta_object_id": "1988-074B",
        "meta_epoch": "2025-12-05T16:52:33.532896",
        "meta_mean_motion": 13.42582937,
        "meta_eccentricity": 0.00925026,
        "meta_inclination": 90.0369,
        "meta_ra_of_asc_node": 20.5696,
        "meta_arg_of_pericenter": 260.3951,
        "meta_mean_anomaly": 226.1548,
        "meta_ephemeris_type": 0,
        "meta_classification_type": "U",
        "meta_norad_cat_id": 19420,
        "meta_element_set_no": 999,
        "meta_rev_at_epoch": 82556,
        "meta_bstar": 0.00023755346,
        "meta_mean_motion_dot": 1.46e-06,
        "meta_mean_motion_ddot": 0,
        "tle_line1": "1 19420U 88074B   25339.70316589  .00000146  00000+0  23755-3 0  9999",
        "tle_line2": "2 19420  90.0369  20.5696 0092502 260.3951 226.1548 13.42582937825565"
      },
      "geometry": {
        "type": "Point",
        "coordinates": [
          -159.51339035830483,
          -66.65466956942595
        ]
      }
    }
  ]
}